"PlaceID","PlaceName","Root","Comment","Lat","Lon"
"1","Abana",,"Now Barada River","33.545097","36.224661"
"2","Abarim","Mount Nebo",,"31.7613578044753","35.7461482447808"
"3","Abdon",,,"33.046264","35.172513"
"4","Abel","Abel-beth-maacah",,"33.2685261431589","35.5780468224879"
"5","Abel-beth-maacah",,,"33.2685261431589","35.5780468224879"
"6","Abel-keramim",,,"32.02425","35.82352"
"7","Abel-maim","Abel-beth-maacah",,"33.2685261431589","35.5780468224879"
"8","Abel-meholah",,,"32.35601","35.536929"
"9","Abel-mizraim",,,"0","0"
"10","Abel-shittim",,,"31.8582621790582","35.641566527928"
"11","Abiezer","Ophrah 2",,"32.6086826954059","35.2882643308455"
"12","Abilene",,,"33.5873","36.09171"
"13","Abronah","Ezion-geber",,"29.7580430764558","35.0306017443078"
"14","Accad",,,"33.0920165397563","44.1292481459466"
"15","Acco",,,"32.927583","35.081555"
"16","Achaia","Athens","region","37.9833333333333","23.7333333333333"
"17","Achshaph",,,"32.9518208315702","35.173826580657"
"18","Achzib",,,"31.7","35"
"19","Achzib",,,"33.0484679854113","35.1022025280577"
"20","Adadah",,,"31.1858","34.96745"
"21","Adam",,,"32.0977201479737","35.5646908540198"
"22","Adamah",,,"32.7253","35.4382"
"23","Adami-nekeb",,,"32.6105","35.54289"
"24","Addar",,,"30.9522","34.7187"
"25","Addon",,,"0","0"
"26","Adithaim",,,"31.7001","34.89532"
"27","Admah",,,"31.1194227016214","35.4125304919517"
"28","Adoraim",,,"31.5166666666667","34.9833333333333"
"29","Adramyttium",,,"39.5748","26.9367"
"30","Adriatic Sea",,"water","42.415","16.3735"
"31","Adullam",,,"31.65","35"
"32","Adummim",,,"31.817585","35.361646"
"33","Aenon",,,"32.398936","35.54351"
"34","Ahava",,,"33.625197","42.786647"
"35","Ahlab",,,"33.0249803635926","35.445446579928"
"36","Ai",,,"31.9169781171252","35.2612263938089"
"37","Ai","Heshbon",,"31.8005200087032","35.8090186671726"
"38","Aiath","Ai 1",,"31.9169781171252","35.2612263938089"
"39","Aija","Ai 1",,"31.9169781171252","35.2612263938089"
"40","Aijalon",,,"31.8411737661954","35.0253792674307"
"41","Ain",,,"34.353071","36.385705"
"42","Ain",,,"31.370835","34.860665"
"43","Akeldama","Jerusalem",,"31.777444","35.234935"
"44","Akrabbim",,,"30.688292","35.263182"
"45","Alemeth",,,"31.828406","35.287637"
"46","Alexandria",,,"31.2278414761719","29.9569242709775"
"47","Allammelech",,,"32.97829","35.182915"
"48","Allon-bacuth","Bethel 1",,"31.9305392058","35.2210327492368"
"49","Almon","Alemeth",,"31.828406","35.287637"
"50","Almon-diblathaim","Dibon 1",,"31.4968451371061","35.78284105297"
"51","Alush","Dophkah",,"28.770015","33.40046"
"52","Amad",,,"33.019337","35.173644"
"53","Amalek",,"region","30.65977","34.835554"
"54","Amam","Moladah",,"31.162327","35.057114"
"55","Amana",,,"33.68137","36.055039"
"56","Amaw","Pethor",,"36.654616","38.068879"
"57","Ammah",,,"31.869005","35.343177"
"58","Ammon",,,"31.9501885546847","35.9241313587275"
"59","Amphipolis",,,"40.8232254722952","23.8386314289402"
"60","Anab",,,"31.403888","34.944185"
"61","Anaharath",,,"32.607039","35.397389"
"62","Ananiah",,,"31.83291","35.219683"
"63","Anathoth",,,"31.8129127689812","35.2634989422684"
"64","Anem","En-gannim 2",,"32.4634990588527","35.3036831926058"
"65","Aner","Taanach",,"32.5172397550172","35.2163250882631"
"66","Angle","Jerusalem",,"31.777444","35.234935"
"67","Anim",,,"31.373521","35.074552"
"68","Antioch",,,"36.2023308705126","36.1623877516507"
"69","Antioch",,,"38.3164305639304","31.1794868304897"
"70","Antipatris",,,"32.10043792968","34.9465093891033"
"71","Aphek",,"http://www.traveljournals.net/explore/lebanon/map/m1170262/hamul.html","34.066067","35.865801"
"72","Aphek",,,"32.1047126614992","34.9319792121178"
"73","Aphek",,,"32.7782680658901","35.6987493527078"
"74","Aphekah","Aphek 2",,"32.1047126614992","34.9319792121178"
"75","Aphik","Aphek 1",,"34.066067","35.865801"
"76","Apollonia",,,"40.5876325134332","23.3533516855756"
"77","Ar",,,"31.4498094222013","35.593958362788"
"78","Arab",,,"31.450746","35.045648"
"79","Arabah",,,"32.029676","35.520995"
"80","Arabia",,"region","27.4","37.7"
"81","Arad",,,"31.2809817090709","35.1263658436521"
"82","Aram",,,"34.85","39.12"
"83","Aram-maacah",,,"33.2","36.5"
"84","Aram-naharaim",,,"35.1","42"
"85","Aram-zobah","Damascus",,"33.519299","36.31345"
"86","Ararat",,,"39.7028929538445","44.2981804726177"
"87","Areopagus","Athens",,"37.9833333333333","23.7333333333333"
"88","Argob",,,"33.144","36.136"
"89","Ariel","Jerusalem",,"31.777444","35.234935"
"90","Arimathea","Mizpah 3",,"31.8327394702322","35.1801628605877"
"91","Armageddon","Megiddo",,"32.5841831361494","35.1822916587059"
"92","Arnon",,"Now Wadi Mojib","31.4288","35.677009"
"93","Aroer",,,"31.4710952982813","35.8220033157933"
"94","Aroer",,"Guess (near Rabbah)","31.9617","35.9115"
"95","Aroer",,,"31.1489318732113","34.9848522498051"
"96","Arpad","Hamath",,"35.136204","36.749488"
"97","Arubboth","Socoh 1",,"31.68123465358","34.9763981751671"
"98","Arumah",,,"32.154887","35.318192"
"99","Arvad",,,"34.856082","35.858485"
"100","Ashan","Ashnah",,"31.8099","34.9365"
"101","Ashdod",,,"31.8029997108616","34.6351145939134"
"102","Ashdod's","Ashdod",,"31.8029997108616","34.6351145939134"
"103","Ashkelon",,,"31.6624051055361","34.5472277349476"
"104","Ashkenaz",,,"40.6","44.6"
"105","Ashnah",,,"31.8099","34.9365"
"106","Ashtaroth",,,"32.8333333333","36.0166666667"
"107","Ashteroth-karnaim",,,"32.7666666667","36.0166666667"
"108","Asia",,"region","39.23","32.73"
"109","Asshur","Nineveh",,"36.35941","43.152887"
"110","Assos",,,"39.4895503130371","26.3358673423991"
"111","Assyria","Nineveh","region","36.35941","43.152887"
"112","Atad","Abel-mizraim",,"0","0"
"113","Ataroth",,,"31.6","35.7"
"114","Ataroth","Upper Beth-horon",,"31.8589179541","35.1283131748422"
"115","Ataroth-addar","Upper Beth-horon",,"31.8589179541","35.1283131748422"
"116","Athach",,,"0","0"
"117","Atharim","Zephath",,"30.880918","34.63062"
"118","Athens",,,"37.9833333333333","23.7333333333333"
"119","Atroth-shophan","Aroer 2",,"31.9617","35.9115"
"120","Attalia",,,"36.8808258007008","30.6945655777897"
"121","Aven","Bethel 1",,"31.9305392058","35.2210327492368"
"122","Avith","Bozrah 1",,"30.734691","35.60625"
"123","Avva","Hena",,"34.467725","41.964955"
"124","Avvim","Hebron",,"31.5357736213318","35.0940998657873"
"125","Ayyah","Gaza",,"31.5248176953277","34.4333647185274"
"126","Azal","Mount of Olives",,"31.7780950334137","35.2471976093501"
"127","Azazel",,,"0","0"
"128","Azekah",,,"31.7006385604375","34.9361858997482"
"129","Azmaveth","Beth-azmaveth",,"31.834203","35.260706"
"130","Azmon",,,"30.958506","34.3805"
"131","Aznoth-tabor","Mount Tabor",,"32.6869564024318","35.3909130429969"
"132","Azotus","Ashdod",,"31.8029997108616","34.6351145939134"
"133","Baal","Baalath-beer",,"32.049953","35.733402"
"134","Baalah","Beersheba",,"31.2449521735771","34.8408885849849"
"135","Baalah","Kiriath-jearim",,"31.771104","34.993812"
"136","Baalath",,,"31.927451","35.055378"
"137","Baalath","Baalath 1",,"31.927451","35.055378"
"138","Baalath-beer",,,"32.049953","35.733402"
"139","Baale-judah","Kiriath-jearim",,"31.771104","34.993812"
"140","Baal-gad","Mount Hermon",,"33.4161598239971","35.8572561763559"
"141","Baal-hamon","Mount Hermon",,"33.4161598239971","35.8572561763559"
"142","Baal-hazor",,,"31.979434","35.279229"
"143","Baal-hermon","Mount Hermon",,"33.4161598239971","35.8572561763559"
"144","Baal-meon",,,"31.679454","35.734892"
"145","Baal-peor","Pisgah",,"31.7650312970331","35.7185657574181"
"146","Baal-perazim","Valley of Rephaim",,"31.756332","35.223059"
"147","Baal-shalishah","Gilgal 2",,"32.029737","35.222604"
"148","Baal-tamar","Gibeah 1",,"31.8237810246031","35.2310093612863"
"149","Baal-zephon",,,"29.938441","32.395473"
"150","Babel",,,"32.5365036861685","44.4208828737388"
"151","Babylon","Babel",,"32.5365036861685","44.4208828737388"
"152","Babylonia","Babel",,"32.5365036861685","44.4208828737388"
"153","Baharum","Bahurim",,"31.824736","35.388486"
"154","Bahurim",,,"31.824736","35.388486"
"155","Balah","Beersheba",,"31.2449521735771","34.8408885849849"
"156","Bamah","Gibeon",,"31.846847727537","35.1849123777751"
"157","Bamoth","Pisgah",,"31.7650312970331","35.7185657574181"
"158","Bamoth-baal","Pisgah",,"31.7650312970331","35.7185657574181"
"159","Bashan","Golan","region","32.8000755250544","35.9373013047626"
"160","Bath-rabbim","Heshbon",,"31.8005200087032","35.8090186671726"
"161","Bealoth","Moladah",,"31.162327","35.057114"
"162","Bealoth","Achzib 2",,"33.0484679854113","35.1022025280577"
"163","Beautiful","Jerusalem",,"31.777444","35.234935"
"164","Beer","Eneglaim",,"30.998062","35.498547"
"165","Beer","Beeroth",,"31.900074491271","35.2166880060246"
"166","Beer-elim","Eneglaim",,"30.998062","35.498547"
"167","Beer-lahai-roi","Kadesh-barnea",,"30.6877128137611","34.4947955424695"
"168","Beeroth",,,"31.900074491271","35.2166880060246"
"169","Beeroth Bene-jaakan","Mount Hor 1",,"30.317396","35.407152"
"170","Beersheba",,,"31.2449521735771","34.8408885849849"
"171","Beeshterah","Ashtaroth",,"32.8333333333","36.0166666667"
"172","Bela","Zoar",,"30.9265225301655","35.4190606947832"
"173","Bene-berak",,"uk.geocities.com/jonpartin/joshua4.html","32.035782","34.827108"
"174","Bene-jaakan","Mount Hor 1",,"30.317396","35.407152"
"175","Benjamin","Jerusalem",,"31.777444","35.234935"
"176","Beon","Baal-meon",,"31.679454","35.734892"
"177","Berea",,,"40.5167","22.2"
"178","Bered","Kadesh-barnea",,"30.6877128137611","34.4947955424695"
"179","Berothah",,,"33.93148","36.152049"
"180","Berothai","Berothah",,"33.93148","36.152049"
"181","Besor",,"wadi esh sheria","31.398056","34.436667"
"182","Betah","Berothah",,"33.93148","36.152049"
"183","Beten",,,"32.934736","35.270799"
"184","Beth-anath",,,"33.146864","35.427134"
"185","Beth-anoth",,,"31.558456","35.124483"
"186","Bethany",,,"31.7716659143338","35.2621220396441"
"187","Bethany",,,"31.8363211491438","35.5526001742234"
"188","Beth-arabah",,,"31.84332","35.50649"
"189","Beth-arbel",,,"32.5610113291875","35.8478299676262"
"190","Beth-ashbea",,,"0","0"
"191","Beth-aven",,,"31.8957170797908","35.2530982470023"
"192","Beth-azmaveth",,,"31.834203","35.260706"
"193","Beth-baal-meon","Baal-meon",,"31.679454","35.734892"
"194","Beth-barah","Bethany 2",,"31.8363211491438","35.5526001742234"
"195","Beth-biri","Madmannah",,"31.391668","34.940502"
"196","Beth-car","Mizpah 3",,"31.8327394702322","35.1801628605877"
"197","Beth-dagon",,,"31.908","34.775"
"198","Beth-dagon",,,"32.899561","35.107928"
"199","Beth-diblathaim","Dibon 1",,"31.4968451371061","35.78284105297"
"200","Beth-eden","Damascus",,"33.519299","36.31345"
"201","Beth-eked","Jezreel 2",,"32.5559631396043","35.3307892784379"
"202","Bethel",,,"31.9305392058","35.2210327492368"
"203","Bethel","Baalath-beer",,"32.049953","35.733402"
"204","Beth-emek",,,"32.978855","35.167096"
"205","Bethesda","Jerusalem",,"31.777444","35.234935"
"206","Beth-ezel","Shaphir",,"31.743719","34.694006"
"207","Beth-gamul",,,"31.519692","35.844714"
"208","Beth-gilgal","Gilgal 1","from tyndale","31.8637832813292","35.5185465122445"
"209","Beth-haccherem",,,"31.665911","35.241516"
"210","Beth-haggan","Megiddo",,"32.5841831361494","35.1822916587059"
"211","Beth-haram",,,"31.816667","35.583333"
"212","Beth-haran","Beth-haram",,"31.816667","35.583333"
"213","Beth-hoglah",,,"31.837062","35.513151"
"214","Beth-horon","Lower Beth-horon",,"31.8789259598691","35.1235674446615"
"215","Beth-jeshimoth",,,"31.7769113465788","35.5986574895017"
"216","Beth-le-aphrah","Ophrah 1",,"31.953789558582","35.29913577541"
"217","Beth-lebaoth","Madmannah",,"31.391668","34.940502"
"218","Bethlehem",,,"31.7053612917467","35.210266301052"
"219","Bethlehem",,,"32.735379","35.189704"
"220","Bethlehem Ephrathah","Bethlehem 1",,"31.7053612917467","35.210266301052"
"221","Beth-maacah","Abel-beth-maacah",,"33.2685261431589","35.5780468224879"
"222","Beth-marcaboth","Madmannah",,"31.391668","34.940502"
"223","Beth-meon","Baal-meon",,"31.679454","35.734892"
"224","Beth-millo","Shechem",,"32.2136912312406","35.2817986718367"
"225","Beth-nimrah",,"now Beth-Nimrah","31.900811","35.625693"
"226","Beth-pazzez","En-gannim 2",,"32.4634990588527","35.3036831926058"
"227","Beth-pelet","Hazar-shual",,"31.215418","34.942986"
"228","Beth-peor",,,"31.656099","35.71187"
"229","Bethphage",,,"31.7903830054301","35.2566723237426"
"230","Beth-rehob",,,"33.219354","35.544122"
"231","Bethsaida",,,"32.9078482839208","35.6269729560882"
"232","Beth-shan",,,"32.5042384550589","35.5030773910858"
"233","Beth-shean","Beth-shan",,"32.5042384550589","35.5030773910858"
"234","Beth-shemesh",,,"31.7527483581149","34.9766091314774"
"235","Beth-shemesh",,,"32.40643","35.504628"
"236","Beth-shemesh","Beth-anath",,"33.146864","35.427134"
"237","Beth-shittah",,,"32.552496","35.438257"
"238","Beth-tappuah",,,"31.52973","35.050377"
"239","Beth-togarmah",,"region","40.065539","45.036328"
"240","Bethuel","Baalath-beer",,"32.049953","35.733402"
"241","Bethul","Baalath-beer",,"32.049953","35.733402"
"242","Beth-zur",,,"31.596107","35.10262"
"243","Betonim",,,"32.0105","35.706297"
"244","River","Jerusalem","region","31.777444","35.234935"
"245","Bezek",,,"31.898029","34.952878"
"246","Bezek",,,"32.3667","35.4"
"247","Bezer",,,"32.5161374094453","36.4882907578501"
"248","Bileam","Ibleam",,"32.45","35.2833"
"249","Bilhah","Beersheba",,"31.2449521735771","34.8408885849849"
"250","Bithynia",,"region","40.905503","30.685778"
"251","Biziothiah","Beersheba",,"31.2449521735771","34.8408885849849"
"252","Bochim","Bethel 1",,"31.9305392058","35.2210327492368"
"253","Bor-ashan","Ashnah",,"31.8099","34.9365"
"254","Bozez",,,"31.8571645032085","35.2871471882481"
"255","Bozkath","Lachish",,"31.5648505611629","34.8467256730566"
"256","Bozrah",,,"30.734691","35.60625"
"257","Bozrah","Bezer",,"32.5161374094453","36.4882907578501"
"258","Broad Wall","Jerusalem",,"31.777444","35.234935"
"259","Egypt",,"river: now Wadi al Arish; http://en.wikipedia.org/wiki/Brook_of_Egypt","31.032047","33.854957"
"260","Arabah","Hamath",,"35.136204","36.749488"
"261","Willows","Jordan Valley",,"32.309099","35.5599"
"262","Buz","Dedan",,"26.625139","37.919663"
"263","Cabbon","Eglon",,"31.5","34.7667"
"264","Cabul",,,"32.865661","35.211814"
"265","Cabul","Cabul 1",,"32.865661","35.211814"
"266","Caesarea",,,"32.499544608298","34.892184975561"
"267","Caesarea Philippi",,,"33.2480599128704","35.6946372535377"
"268","Calah",,,"36.142884","43.312178"
"269","Calneh",,,"32.127213","45.229995"
"270","Calno","Calneh",,"32.127213","45.229995"
"271","Cana",,,"32.7470151795859","35.3387716205816"
"272","Canaan","Gath","region","31.6935295036883","34.8438828857684"
"273","Canneh","Calneh",,"32.127213","45.229995"
"274","Capernaum",,,"32.8805941258162","35.5751576747931"
"275","Caphtor","Crete","http://en.wikipedia.org/wiki/Caphtor","35.171239","25.007204"
"276","Cappadocia",,"region","36.731904","35.486302"
"277","Carchemish",,,"36.8292816109963","38.0157605100102"
"278","Carmel",,,"31.433331516746","35.133331885308"
"279","Casiphia","Hamath",,"35.136204","36.749488"
"280","Cauda",,"island; now Gavdos; http://www.creteisland.gr/english/chania/selino/gavdos/","34.84351","24.091671"
"281","Cenchreae",,,"37.8846036500097","22.9933595701051"
"282","Chaldea","Ur","region","30.9620520474569","46.1037419577417"
"283","Chebar",,"; now Nehardea; http://www.hebrewhistory.info/factpapers/fp031_iraq.htm","33.159129","44.06293"
"284","Chephar-ammoni",,"; now Khirbat Kafr Ana","31.966667","35.25"
"285","Chephirah",,"now Kirbat el Kafira","31.836401","35.095272"
"286","Cherith","Jordan Valley",,"32.309099","35.5599"
"287","Cherub","Babel",,"32.5365036861685","44.4208828737388"
"288","Chesalon",,,"31.781049","35.05113"
"289","Chesil","Baalath-beer",,"32.049953","35.733402"
"290","Chesulloth",,,"32.683231","35.324694"
"291","Chezib","Achzib 1",,"31.7","35"
"292","Chilmad","Nineveh",,"36.35941","43.152887"
"293","Chinnereth","Sea of Galilee",,"32.8067758552032","35.5893605267909"
"294","Chinnereth","Sea of Galilee",,"32.8067758552032","35.5893605267909"
"295","Chinneroth","Sea of Galilee","region","32.8067758552032","35.5893605267909"
"296","Chios",,"now Chios","38.44484","26.063302"
"297","Chisloth-tabor","Chesulloth",,"32.683231","35.324694"
"298","Chitlish","Gederah",,"31.823337","34.777779"
"299","Chorazin",,,"32.9090916893302","35.552923241442"
"300","Cilicia","Tarsus","region","36.9180269535628","34.8915339842257"
"301","Destruction","On",,"30.108086","31.33822"
"302","Salt","Engedi",,"31.4615253616477","35.3924110824235"
"303","Lord","Jerusalem",,"31.777444","35.234935"
"304","Cnidus",,,"36.6850225579092","27.3743943237675"
"305","Colossae",,,"37.7833333333333","29.25"
"306","Corinth",,,"37.9059573586561","22.8778817558884"
"307","Gate","Jerusalem",,"31.777444","35.234935"
"308","Cos",,,"36.8046700605495","27.0899404052129"
"309","Cozeba","Achzib 1",,"31.7","35"
"310","Crete",,"island","35.171239","25.007204"
"311","Cun","Berothah",,"33.93148","36.152049"
"312","Cush","Ethiopia",,"21.959788","31.343557"
"313","Cushan","Ethiopia",,"21.959788","31.343557"
"314","Cuth",,"http://en.wikipedia.org/wiki/Kutha","32.733333","44.666667"
"315","Cuthah","Cuth",,"32.733333","44.666667"
"316","Cyprus",,"island","35.018306","33.207693"
"317","Cyrene",,"http://en.wikipedia.org/wiki/Cyrene%2C_Libya","32.824979","21.858301"
"318","Dabbesheth",,,"33","35.266682"
"319","Daberath",,,"32.6917126758428","35.3717103106199"
"320","Dalmanutha","Magadan",,"32.8473349462972","35.5229361797708"
"321","Dalmatia",,"region","43.515484","16.071538"
"322","Damascus",,,"33.519299","36.31345"
"323","Dan",,,"33.2486599789731","35.6524834503904"
"324","Dannah",,,"31.561025","34.975472"
"325","Debir",,,"31.416669599771","34.9666701228008"
"326","Debir",,"now Ed Dhaherie","31.816662","35.349994"
"327","Debir","Lo-debar",,"32.662488","35.783568"
"328","Decapolis","Damascus","region","33.519299","36.31345"
"329","Dedan",,"http://en.wikipedia.org/wiki/Al-%27Ula","26.625139","37.919663"
"330","Derbe",,,"37.350920169624","33.2714176992638"
"331","Dibon",,,"31.4968451371061","35.78284105297"
"332","Dibon","Adadah",,"31.1858","34.96745"
"333","Dibon-gad","Dibon 1",,"31.4968451371061","35.78284105297"
"334","Dilean","Lachish",,"31.5648505611629","34.8467256730566"
"335","Dimnah",,,"32.781808","35.321364"
"336","Dimonah","Adadah",,"31.1858","34.96745"
"337","Dinhabah",,,"30.336614","35.529889"
"338","Diviners' Oak","Shechem",,"32.2136912312406","35.2817986718367"
"339","Dizahab",,,"28.507836","34.516339"
"340","Dophkah",,,"28.770015","33.40046"
"341","Dor",,,"32.6132361839452","34.9188968343406"
"342","Dothan",,,"32.4206433838085","35.1801982995296"
"343","Dragon Spring","Jerusalem",,"31.777444","35.234935"
"344","Dumah",,,"31.43827","34.982762"
"345","Dumah","Arabia",,"27.4","37.7"
"346","Gate","Jerusalem","KMZ:Dung Gate","31.777444","35.234935"
"347","Dura","Babel",,"32.5365036861685","44.4208828737388"
"348","East","Ammon",,"31.9501885546847","35.9241313587275"
"349","Gate","Jerusalem",,"31.777444","35.234935"
"350","Ebenezer","Mizpah 3",,"31.8327394702322","35.1801628605877"
"351","Ebez",,"now Al-Bathan","32.261621","35.328129"
"352","Ebron","Abdon",,"33.046264","35.172513"
"353","Ecbatana",,,"34.798311","48.514966"
"354","Eden",,,"0","0"
"355","Eder","Bethlehem 1",,"31.7053612917467","35.210266301052"
"356","Eder","Adadah",,"31.1858","34.96745"
"357","Edom","Bozrah 1",,"30.734691","35.60625"
"358","Edrei",,,"32.624137076961","36.0989966359312"
"359","Eglaim","Eneglaim",,"30.998062","35.498547"
"360","Eglath-shelishiyah",,,"0","0"
"361","Eglon",,,"31.5","34.7667"
"362","Egypt","On","region","30.108086","31.33822"
"363","Egypt's","On",,"30.108086","31.33822"
"364","Ekron",,,"31.7776141053746","34.8521457588051"
"365","Elam","Susa","region","32.1891912370512","48.2578864768772"
"366","Elath",,,"29.528502","35.005732"
"367","El-bethel","Bethel 1",,"31.9305392058","35.2210327492368"
"368","Elealeh",,,"31.813796","35.824275"
"369","Elim",,,"29.306194","32.980924"
"370","Elishah","Cyprus",,"35.018306","33.207693"
"371","Elkosh",,,"0","0"
"372","Ellasar",,"region; http://en.wikipedia.org/wiki/Urkesh","37.056944","40.997222"
"373","Elon",,,"31.973818","35.116531"
"374","Elonbeth-hanan",,,"31.852593","35.109078"
"375","Eloth","Elath",,"29.528502","35.005732"
"376","El-paran","Paran",,"29.151667","33.541944"
"377","Elteke","Eltekeh",,"31.869521","35.06688"
"378","Eltekeh",,,"31.869521","35.06688"
"379","Eltekon",,"from tyndale","31.66057","34.995406"
"380","Eltolad","Baalath-beer",,"32.049953","35.733402"
"381","Emek-keziz","Beth-hoglah",,"31.837062","35.513151"
"382","Emmaus",,,"31.8394502237255","34.9895293285359"
"383","Enaim","Timnah 1",,"31.784368","34.90968"
"384","Enam",,,"32.15","35.126"
"385","En-dor",,,"32.6257002091574","35.3856674441871"
"386","Eneglaim",,,"30.998062","35.498547"
"387","En-gannim",,,"31.75","34.950106"
"388","En-gannim",,,"32.4634990588527","35.3036831926058"
"389","Engedi",,,"31.4615253616477","35.3924110824235"
"390","En-haddah",,,"32.478425","35.254452"
"391","En-hakkore","Beth-shemesh 1",,"31.7527483581149","34.9766091314774"
"392","En-hazor",,,"33.1","35.35"
"393","En-mishpat","Kadesh-barnea",,"30.6877128137611","34.4947955424695"
"394","En-rimmon","Ain 2",,"31.370835","34.860665"
"395","En-rogel",,,"31.767775","35.234408"
"396","En-shemesh",,,"31.77402","35.270231"
"397","En-tappuah","Tappuah 1",,"32.1166666666667","35.2333333333333"
"398","Ephah","Midian",,"28.932881","34.90832"
"399","Ephes-dammim",,,"31.691186","34.944496"
"400","Ephesus",,,"37.9533143366637","27.3678251157301"
"401","Ephraim","Ophrah 1",,"31.953789558582","35.29913577541"
"402","Ephraim","Jerusalem",,"31.777444","35.234935"
"403","Ephrath","Bethlehem 1",,"31.7053612917467","35.210266301052"
"404","Ephrathah","Bethlehem 1",,"31.7053612917467","35.210266301052"
"405","Ephron","Mount Ephron",,"31.675746","35.042407"
"406","Ephron","Ophrah 1",,"31.953789558582","35.29913577541"
"407","Erech",,"now Uruk","32.322222","45.636111"
"408","Esau","Bozrah 1",,"30.734691","35.60625"
"409","Esek","Gerar",,"31.391291096357","34.5605701563914"
"410","Eshan",,,"31.420175","35.033537"
"411","Eshtaol",,,"31.782429","35.009012"
"412","Eshtemoa","Anim",,"31.373521","35.074552"
"413","Eshtemoh","Anim",,"31.373521","35.074552"
"414","Etam",,"http://www.tiuli.com/english/Judean_Mountains/Judean_Mountains.asp","31.736294","35.05485"
"415","Etam","Ain 2",,"31.370835","34.860665"
"416","Etam",,"now Khirbet el Khokh; palestine-family.net/index.phpnav=8-18&cid=17&did=193","31.686465","35.17474"
"417","Etham",,,"30.467511","32.282767"
"418","Ether","Ashnah",,"31.8099","34.9365"
"419","Ethiopia",,"region","21.959788","31.343557"
"420","Eth-kazin","Dimnah",,"32.781808","35.321364"
"421","Euphrates",,"river","35.090577","40.42778"
"422","Ezem","Baalath-beer",,"32.049953","35.733402"
"423","Ezion-geber",,,"29.7580430764558","35.0306017443078"
"424","Fair Havens",,,"34.9213841868177","24.7311412597334"
"425","Field","Jerusalem",,"31.777444","35.234935"
"426","Gate","Jerusalem",,"31.777444","35.234935"
"427","ForumAppius",,"http://gnswww.nga.mil/geonames/Gazetteer/Search/Results.jspFeature__Unique_Feature_ID=-117178&Diacritics=Yes&reload=1","41.468706","12.993929"
"428","Gate","Jerusalem",,"31.777444","35.234935"
"429","Gaash","Timnath-heres",,"32.121473","35.150392"
"430","Gabbatha","Jerusalem",,"31.777444","35.234935"
"431","Galatia","Lystra",,"37.5781349825001","32.4531828287557"
"432","Galeed","Ramoth-gilead",,"32.5652675736685","36.0055593087964"
"433","Galilee","Nazareth","region","32.7067454247438","35.3015280776797"
"434","Gallim",,"; from tyndale","31.816667","35.25"
"435","Gamad","Arvad",,"34.856082","35.858485"
"436","Gareb","Jerusalem",,"31.777444","35.234935"
"437","Benjamin","Jerusalem",,"31.777444","35.234935"
"438","Ephraim","Jerusalem",,"31.777444","35.234935"
"439","Gate","Jerusalem",,"31.777444","35.234935"
"440","Gate","Jerusalem",,"31.777444","35.234935"
"441","Gate","Jerusalem",,"31.777444","35.234935"
"442","Gath",,,"31.6935295036883","34.8438828857684"
"443","Gath-hepher",,,"32.739184701196","35.3282266181671"
"444","Gath-rimmon",,,"32.0697222222222","34.8830555555556"
"445","Gath-rimmon","Ibleam",,"32.45","35.2833"
"446","Gaza",,,"31.5248176953277","34.4333647185274"
"447","Geba",,,"31.8578780412263","35.2597552160882"
"448","Geba","Gibeon",,"31.846847727537","35.1849123777751"
"449","Gebal",,,"34.1191036071016","35.6461419556213"
"450","Gebim",,,"31.8","35.25"
"451","Geder","Gedor 1",,"31.63333","35.083333"
"452","Gederah",,,"31.823337","34.777779"
"453","Gederoth","Gederah",,"31.823337","34.777779"
"454","Gederothaim","Gederah",,"31.823337","34.777779"
"455","Gedor",,,"31.63333","35.083333"
"456","Gedor","Gederah",,"31.823337","34.777779"
"457","Geliloth","Gilgal 1",,"31.8637832813292","35.5185465122445"
"458","Gennesaret",,,"32.8593586037253","35.5099374202197"
"459","Gerar",,,"31.391291096357","34.5605701563914"
"460","Geruth Chimham","Bethlehem 1",,"31.7053612917467","35.210266301052"
"461","Geshur",,"; now Leja","33","36.41667"
"462","Gethsemane","Jerusalem",,"31.777444","35.234935"
"463","Gezer",,,"31.8761111111111","34.9225"
"464","Giah","Ammah",,"31.869005","35.343177"
"465","Gibbethon",,"now Qibya","31.976623","35.004896"
"466","Gibeah",,,"31.8237810246031","35.2310093612863"
"467","Gibeah","Carmel",,"31.433331516746","35.133331885308"
"468","Gibeath-elohim","Bethel 1",,"31.9305392058","35.2210327492368"
"469","Gibeath-haaraloth","Gilgal 1",,"31.8637832813292","35.5185465122445"
"470","Gibeon",,,"31.846847727537","35.1849123777751"
"471","Gidom","Rimmon 1",,"31.93466","35.297063"
"472","Gihon",,,"0","0"
"473","Gihon",,,"31.773116","35.237186"
"474","Gilboa",,,"32.516667","35.4"
"475","Gilead",,"region","32.042523","35.724241"
"476","Gilgal",,,"31.8637832813292","35.5185465122445"
"477","Gilgal",,,"32.029737","35.222604"
"478","Gilo","Giloh",,"31.616667","35.083333"
"479","Giloh",,,"31.616667","35.083333"
"480","Gimzo",,,"31.928659","34.943219"
"481","Gittaim","Hadid",,"31.963575","34.952536"
"482","Goah","Jerusalem",,"31.777444","35.234935"
"483","Gob","Gezer",,"31.8761111111111","34.9225"
"484","Gog",,"region","46","47"
"485","Goiim",,,"0","0"
"486","Golan",,,"32.8000755250544","35.9373013047626"
"487","Golgotha","Jerusalem",,"31.777444","35.234935"
"488","Gomer",,,"0","0"
"489","Gomorrah",,,"31.1572486653388","35.4739543300078"
"490","Goshen",,,"30.728501638144","31.8046922361651"
"491","Goshen",,"; from harper","31.45","34.916667"
"492","Gozan",,"from harper","36.840013","40.06889"
"493","Sea",,"sea","33.24","33.47"
"494","Sidon","Sidon",,"33.5631673413575","35.366346493548"
"495","Greece","Athens","region","37.9833333333333","23.7333333333333"
"496","Gudgodah","Hor-haggidgad",,"30.358285","35.19027"
"497","Gur","Ibleam",,"32.45","35.2833"
"498","Gurbaal","Bozrah 1",,"30.734691","35.60625"
"499","Habor",,"river","36.344972","40.789333"
"500","Hachilah",,"; now Zahrat al Kula","31.466604","35.216691"
"501","Hadad-rimmon",,"now Rommanah","32.524106","35.205136"
"502","Hadashah",,"now Ibdis","31.679512","34.695903"
"503","Hadid",,,"31.963575","34.952536"
"504","Hadrach","Damascus",,"33.519299","36.31345"
"505","Haeleph",,"now Lifta","31.792733","35.196862"
"506","Hahiroth","Pi-hahiroth","from tyndale","29.94658","32.425144"
"507","Hakkephirim","Ono",,"32.0222222222222","34.8666666666667"
"508","Halah","Habor",,"36.344972","40.789333"
"509","Halhul",,,"31.579549","35.099103"
"510","Hali","Beten",,"32.934736","35.270799"
"511","Judgment","Jerusalem",,"31.777444","35.234935"
"512","Pillars","Jerusalem",,"31.777444","35.234935"
"513","Throne","Jerusalem",,"31.777444","35.234935"
"514","Ham","Ammon",,"31.9501885546847","35.9241313587275"
"515","Ham","On",,"30.108086","31.33822"
"516","Hamath",,,"35.136204","36.749488"
"517","Hamath-zobah","Hamath",,"35.136204","36.749488"
"518","Hammath",,,"33.125828","35.165"
"519","Hammon","Hammath",,"33.125828","35.165"
"520","Hammoth-dor","Hammath",,"33.125828","35.165"
"521","Hamonah","Dibon 1",,"31.4968451371061","35.78284105297"
"522","Hanes",,"http://www.digitalegypt.ucl.ac.uk/ehnasya/index.html","29.085425","30.934402"
"523","Hannathon",,,"32.916002","35.426637"
"524","Hapharaim","Ophrah 2",,"32.6086826954059","35.2882643308455"
"525","Hara","Habor",,"36.344972","40.789333"
"526","Haradah","Mount Hor 1",,"30.317396","35.407152"
"527","Haran",,,"36.8638640765965","39.0321967222734"
"528","Harmon","Samaria",,"32.280231","35.197929"
"529","Harod",,"now Ein Harod","32.549638","35.355647"
"530","Harosheth-hagoyim",,,"32.691177","35.110039"
"531","Hashmonah","Mount Hor 1",,"30.317396","35.407152"
"532","Hauran","Golan","region","32.8000755250544","35.9373013047626"
"533","Havilah",,,"0","0"
"534","Havilah",,,"30.14","35.22"
"535","Havvoth-jair","Gilead",,"32.042523","35.724241"
"536","Hazar-addar","Addar",,"30.9522","34.7187"
"537","Hazar-enan",,"now Al Qaryatayn","34.229499","37.240077"
"538","Hazar-gaddah","Moladah",,"31.162327","35.057114"
"539","Hazar-shual",,,"31.215418","34.942986"
"540","Hazar-susah","Madmannah",,"31.391668","34.940502"
"541","Hazar-susim","Madmannah",,"31.391668","34.940502"
"542","Hazazon-tamar","Engedi",,"31.4615253616477","35.3924110824235"
"543","Hazer-hatticon","Hamath",,"35.136204","36.749488"
"544","Hazeroth",,,"28.916667","34.5"
"545","Hazor",,,"33.0171819966793","35.5680485675826"
"546","Hazor","Kadesh-barnea",,"30.6877128137611","34.4947955424695"
"547","Hazor","Moladah",,"31.162327","35.057114"
"548","Hazor",,,"31.833333","35.2"
"549","Hazor",,,"0","0"
"550","Hazor-hadattah","Moladah",,"31.162327","35.057114"
"551","Hebron",,,"31.5357736213318","35.0940998657873"
"552","Helam","Peniel",,"32.1843727808126","35.7028700274679"
"553","Helbah","Aphek 1",,"34.066067","35.865801"
"554","Helbon",,"now Halbon","33.664912","36.248576"
"555","Helech","Arvad",,"34.856082","35.858485"
"556","Heleph",,,"33.134416","35.332157"
"557","Heliopolis","On",,"30.108086","31.33822"
"558","Helkath",,,"32.955448","35.211971"
"559","Helkath-hazzurim",,,"31.880126","35.280188"
"560","Hena",,,"34.467725","41.964955"
"561","Hepher",,,"32.3667","34.8833"
"562","Heres","Succoth 1",,"32.1999829853107","35.6333130338963"
"563","Hereth",,,"31.621492","35.029273"
"564","Hermon","Mount Hermon",,"33.4161598239971","35.8572561763559"
"565","Heshbon",,,"31.8005200087032","35.8090186671726"
"566","Heshmon","Hazar-shual",,"31.215418","34.942986"
"567","Hethlon",,,"34.73799","36.340918"
"568","Hezron","Hazor 1",,"33.0171819966793","35.5680485675826"
"569","Hierapolis",,,"37.924517","29.124525"
"570","Hilen","Holon 1",,"31.583333","34.95"
"571","Hobah",,,"33.5","36.466667"
"572","Holon",,,"31.583333","34.95"
"573","Holon","Jahaz",,"31.5010030850266","35.9206312519937"
"574","Place",,"mobile","0","0"
"575","Place","Jerusalem",,"31.777444","35.234935"
"576","Horeb","Mount Sinai",,"28.539722","33.973333"
"577","Horem",,,"33.166667","35.433333"
"578","Horesh",,,"31.4511392052998","35.0884033723235"
"579","Hor-haggidgad",,,"30.358285","35.19027"
"580","Hormah","Zephath",,"30.880918","34.63062"
"581","Horonaim",,,"31.288056","35.515"
"582","Gate","Jerusalem",,"31.777444","35.234935"
"583","Hosah",,,"32.178502","35.22758"
"584","Forest","Jerusalem",,"31.777444","35.234935"
"585","Lebanon","Jerusalem",,"31.777444","35.234935"
"586","Hukkok",,,"32.882153","35.496694"
"587","Hukok","Helkath",,"32.955448","35.211971"
"588","Humtah","Hebron",,"31.5357736213318","35.0940998657873"
"589","Ibleam",,,"32.45","35.2833"
"590","Iconium",,,"37.883530388904","32.4942625657248"
"591","Idalah",,,"32.733333","35.166667"
"592","Idumea","Bozrah 1",,"30.734691","35.60625"
"593","Iim","Baalath-beer",,"32.049953","35.733402"
"594","Ijon",,,"33.3280440294507","35.6118750534242"
"595","Illyricum","Dalmatia","region","43.515484","16.071538"
"596","Immer","Nineveh",,"36.35941","43.152887"
"597","India",,,"22","77"
"598","Iphtah","Ashnah",,"31.8099","34.9365"
"599","Irpeel",,,"31.869343","35.197712"
"600","Ir-shemesh","Beth-shemesh 1",,"31.7527483581149","34.9766091314774"
"601","Italy","Rome","region","41.9","12.4833333333333"
"602","Ithlah",,"Now Bayt Thul","31.823593","35.075769"
"603","Ithnan","Moladah",,"31.162327","35.057114"
"604","Ituraea","Mount Hermon","region","33.4161598239971","35.8572561763559"
"605","Ivvah","Hena",,"34.467725","41.964955"
"606","Iye-abarim","Dibon 1",,"31.4968451371061","35.78284105297"
"607","Iyim","Dibon 1",,"31.4968451371061","35.78284105297"
"608","Jaar","Kiriath-jearim",,"31.771104","34.993812"
"609","Jabbok",,,"32.193237","35.676305"
"610","Jabesh","Jabesh-gilead",,"32.379821752363","35.6115874649309"
"611","Jabesh-gilead",,,"32.379821752363","35.6115874649309"
"612","Jabez","Bethlehem 1",,"31.7053612917467","35.210266301052"
"613","Jabneel",,"now Yavneh","31.865518","34.746856"
"614","Jabneel",,"now Yavneel","32.7","35.5"
"615","Jabneh","Jabneel 1",,"31.865518","34.746856"
"616","Jagur","Adadah",,"31.1858","34.96745"
"617","Jahaz",,,"31.5010030850266","35.9206312519937"
"618","Jahzah","Jahaz",,"31.5010030850266","35.9206312519937"
"619","Jair","Gilead","region","32.042523","35.724241"
"620","Janim",,"now Bani Naim","31.516667","35.166667"
"621","Janoah",,"now Yanouh","33.260246","35.302915"
"622","Janoah",,,"32.155895","35.361606"
"623","Japhia",,"now Yafa","32.691633","35.274955"
"624","Jarmuth",,,"31.7092689430742","34.9699538702544"
"625","Jarmuth","Jezreel 2",,"32.5559631396043","35.3307892784379"
"626","Jattir",,,"31.4014385188615","35.0694134921053"
"627","Javan","Ephesus","from harper; http://en.wikipedia.org/wiki/Ionia","37.9533143366637","27.3678251157301"
"628","Jazer",,,"31.943529516898","35.7277696115713"
"629","Jebus","Jerusalem",,"31.777444","35.234935"
"630","Jebusite","Jerusalem",,"31.777444","35.234935"
"631","Jegar-sahadutha","Ramoth-gilead",,"32.5652675736685","36.0055593087964"
"632","Jehud",,"now Yehud","32.033636","34.889599"
"633","Jekabzeel","Adadah",,"31.1858","34.96745"
"634","Jericho",,,"31.8706014381829","35.4438637122443"
"635","Jeruel","Ziz",,"31.572903","35.406346"
"636","Jerusalem",,,"31.777444","35.234935"
"637","Jerusalem's","Jerusalem",,"31.777444","35.234935"
"638","Jeshanah",,"now Ein Sinya","31.980029","35.229709"
"639","Jeshimon","Engedi",,"31.4615253616477","35.3924110824235"
"640","Jeshua","Moladah",,"31.162327","35.057114"
"641","Jetur","Mount Hermon",,"33.4161598239971","35.8572561763559"
"642","Jezreel","Hebron",,"31.5357736213318","35.0940998657873"
"643","Jezreel",,,"32.5559631396043","35.3307892784379"
"644","Jezreel","Jezreel 2",,"32.5559631396043","35.3307892784379"
"645","Jogbehah",,,"32.028743","35.862887"
"646","Jokdeam","Zanoah 2",,"31.366667","35"
"647","Jokmeam","Jokneam",,"32.6645457655082","35.108918188633"
"648","Jokmeam","Kibzaim",,"31.833333","35.3"
"649","Jokneam",,,"32.6645457655082","35.108918188633"
"650","Joktheel","Lachish",,"31.5648505611629","34.8467256730566"
"651","Joktheel","Sela",,"30.3224357122321","35.4562794691997"
"652","Joppa",,,"32.053519684947","34.7504260600995"
"653","Jordan","Jordan Valley","river","32.309099","35.5599"
"654","Jordan Valley",,,"32.309099","35.5599"
"655","Jotbah","Ezion-geber",,"29.7580430764558","35.0306017443078"
"656","Jotbathah","Ezion-geber",,"29.7580430764558","35.0306017443078"
"657","Judea","Jerusalem","region","31.777444","35.234935"
"658","Judean","Jerusalem",,"31.777444","35.234935"
"659","Juttah",,"; now Yatta","31.45","35.083333"
"660","Kabzeel","Adadah",,"31.1858","34.96745"
"661","Kadesh","Kadesh-barnea",,"30.6877128137611","34.4947955424695"
"662","Kadesh",,,"34.558327","36.522943"
"663","Kadesh-barnea",,,"30.6877128137611","34.4947955424695"
"664","Kain",,"now Yaqin","31.5","35.166667"
"665","Kamon","Gilead",,"32.042523","35.724241"
"666","Kanah",,,"32.138219","35.038971"
"667","Kanah","Cana",,"32.7470151795859","35.3387716205816"
"668","Karka","Azmon",,"30.958506","34.3805"
"669","Karkor","Peniel",,"32.1843727808126","35.7028700274679"
"670","Karnaim","Ashteroth-karnaim",,"32.7666666667","36.0166666667"
"671","Kartah","Kitron",,"32.753141","35.279335"
"672","Kartan","Hammath",,"33.125828","35.165"
"673","Kattath","Kitron",,"32.753141","35.279335"
"674","Kedar","Arabia",,"27.4","37.7"
"675","Kedemoth",,"; esv map","31.646073","35.894537"
"676","Kedesh",,,"33.112983574861","35.5336133415023"
"677","Kedesh","Kadesh-barnea",,"30.6877128137611","34.4947955424695"
"678","Kedesh","Kishion",,"32.559061","35.246206"
"679","Kedesh-naphtali","Kedesh 1",,"33.112983574861","35.5336133415023"
"680","Kehelathah","Mount Hor 1",,"30.317396","35.407152"
"681","Keilah",,"now Khirbet Qila","31.614175","35.002752"
"682","Kenath",,,"32.756919","36.6164"
"683","Kerioth","Kiriathaim 1",,"31.5833333333","35.7000000000001"
"684","Kerioth-hezron","Moladah",,"31.162327","35.057114"
"685","Kibroth-hattaavah","Hazeroth",,"28.916667","34.5"
"686","Kibzaim",,"; now Kabus","31.833333","35.3"
"687","Kidron",,,"31.772134","35.236596"
"688","Kidron Valley","Kidron",,"31.772134","35.236596"
"689","Kinah","Adadah",,"31.1858","34.96745"
"690","Highway","Kir",,"31.1813257959451","35.7021477904471"
"691","Pool","Jerusalem",,"31.777444","35.234935"
"692","Valley","Jerusalem",,"31.777444","35.234935"
"693","Kir",,,"31.1813257959451","35.7021477904471"
"694","Kir-hareseth","Kir",,"31.1813257959451","35.7021477904471"
"695","Kiriathaim",,,"31.5833333333","35.7000000000001"
"696","Kiriathaim","Hammath",,"33.125828","35.165"
"697","Kiriath-arba","Hebron",,"31.5357736213318","35.0940998657873"
"698","Kiriath-arim","Kiriath-jearim",,"31.771104","34.993812"
"699","Kiriath-baal","Kiriath-jearim",,"31.771104","34.993812"
"700","Kiriath-huzoth","Pisgah",,"31.7650312970331","35.7185657574181"
"701","Kiriath-jearim",,,"31.771104","34.993812"
"702","Kiriath-sannah","Debir 1",,"31.416669599771","34.9666701228008"
"703","Kiriath-sepher","Debir 1",,"31.416669599771","34.9666701228008"
"704","Kishion",,,"32.559061","35.246206"
"705","Kishon",,"river","32.761948","35.064096"
"706","Kitron",,,"32.753141","35.279335"
"707","Kittim","Cyprus",,"35.018306","33.207693"
"708","Koa","Ecbatana","http://www.answers.com/topic/mede","34.798311","48.514966"
"709","Kue","Tarsus","from tyndale","36.9180269535628","34.8915339842257"
"710","Laban","Ashnah",,"31.8099","34.9365"
"711","Lachish",,,"31.5648505611629","34.8467256730566"
"712","Lahmam",,,"31.566667","34.9"
"713","Laish","Dan",,"33.2486599789731","35.6524834503904"
"714","Laishah",,"now Isawiya","31.8","35.25"
"715","Lakkum","Mount Tabor",,"32.6869564024318","35.3909130429969"
"716","Laodicea",,,"37.7698672376142","29.0645011023707"
"717","Lasea",,,"34.9349173436403","24.8091989917252"
"718","Lasha",,"http://www.christusrex.org/www1/ofm/mad/sections/section3.html","31.718148","35.584826"
"719","Lasharon",,"now Sharona","32.72544","35.467002"
"720","Lebanon",,"region","33.752479","35.590804"
"721","Lebaoth","Madmannah",,"31.391668","34.940502"
"722","Leb-kamai","Ur",,"30.9620520474569","46.1037419577417"
"723","Lebo-hamath","Hamath",,"35.136204","36.749488"
"724","Lebonah",,"now al-Lubban","32.07077","35.239871"
"725","Lehem","Bethlehem 1",,"31.7053612917467","35.210266301052"
"726","Lehi","Beth-shemesh 1",,"31.7527483581149","34.9766091314774"
"727","Leshem","Dan",,"33.2486599789731","35.6524834503904"
"728","Libnah","Lachish",,"31.5648505611629","34.8467256730566"
"729","Libnah","Ashnah",,"31.8099","34.9365"
"730","Libya","Cyrene",,"32.824979","21.858301"
"731","Lod",,,"31.9513888888889","34.8952777777778"
"732","Lo-debar",,,"32.662488","35.783568"
"733","Beth-horon",,,"31.8789259598691","35.1235674446615"
"734","Beth-horon","Lower Beth-horon",,"31.8789259598691","35.1235674446615"
"735","Lud","Lod",,"31.9513888888889","34.8952777777778"
"736","Luhith","Horonaim",,"31.288056","35.515"
"737","Luz","Bethel 1",,"31.9305392058","35.2210327492368"
"738","Luz",,,"37","36.57"
"739","Lycaonia","Iconium","region","37.883530388904","32.4942625657248"
"740","Lycia","Patara","region","36.2747178692721","29.3186378339052"
"741","Lydda","Lod",,"31.9513888888889","34.8952777777778"
"742","Lystra",,,"37.5781349825001","32.4531828287557"
"743","Maacah","Aram-maacah",,"33.2","36.5"
"744","Maacath","Aram-maacah",,"33.2","36.5"
"745","Maarath",,"now Bayt Ummar","31.621003","35.102328"
"746","Maareh-geba","Gibeah 1",,"31.8237810246031","35.2310093612863"
"747","Macedonia","Thessalonica","region","40.632155565205","22.9320868699276"
"748","Machpelah",,,"31.5246479455539","35.1107346508736"
"749","Madmannah",,,"31.391668","34.940502"
"750","Madmen","Dibon 1",,"31.4968451371061","35.78284105297"
"751","Madmenah","Gebim",,"31.8","35.25"
"752","Madon",,,"32.799879","35.459506"
"753","Magadan",,,"32.8473349462972","35.5229361797708"
"754","Magog","Gog",,"46","47"
"755","Mahalab","Ahlab",,"33.0249803635926","35.445446579928"
"756","Mahanaim",,,"32.214708","35.632914"
"757","Mahaneh-dan",,,"31.758315","34.994252"
"758","Makaz","Shaalbim",,"31.870364","34.981728"
"759","Makheloth","Mount Hor 1",,"30.317396","35.407152"
"760","Makkedah",,,"31.935117","34.781326"
"761","Malta",,,"35.8528267524279","14.5324360140771"
"762","Mamre",,,"31.5490987168687","35.0935606202003"
"763","Manahath",,"now Malha","31.752603","35.181972"
"764","Maon",,,"31.4166666666667","35.1166666666667"
"765","Marah",,,"29.35","32.933333"
"766","Mareal",,"now Malul","32.697409","35.241789"
"767","Mareshah",,,"31.6039332129508","34.9023777777778"
"768","Maroth","Shaphir",,"31.743719","34.694006"
"769","Mashal","Abdon",,"33.046264","35.172513"
"770","Masrekah","Bozrah 1",,"30.734691","35.60625"
"771","Massah","Rephidim",,"28.7310610256432","33.841699957265"
"772","Mattanah","Lasha",,"31.718148","35.584826"
"773","Mearah",,,"33.633333","35.433333"
"774","Meconah","Ain 2",,"31.370835","34.860665"
"775","Medeba",,,"31.7204576324859","35.7919723196289"
"776","Media","Ecbatana",,"34.798311","48.514966"
"777","Megiddo",,,"32.5841831361494","35.1822916587059"
"778","Me-jarkon","Rakkon",,"32.132898","34.788144"
"779","Memphis",,"http://en.wikipedia.org/wiki/Memphis%2C_Egypt","29.849632","31.253958"
"780","Mephaath",,,"31.85","35.933333"
"781","Merathaim","Babel",,"32.5365036861685","44.4208828737388"
"782","Meribah","Kadesh-barnea",,"30.6877128137611","34.4947955424695"
"783","Meribah","Rephidim",,"28.7310610256432","33.841699957265"
"784","Meribah-kadesh","Kadesh-barnea",,"30.6877128137611","34.4947955424695"
"785","Merom",,"lake","33.075269","35.60548"
"786","Meroz","Mount Tabor",,"32.6869564024318","35.3909130429969"
"787","Mesha",,,"28.85726","34.859127"
"788","Meshech","Gog",,"46","47"
"789","Meshech-Tubal","Gog",,"46","47"
"790","Mesopotamia","Babel","region","32.5365036861685","44.4208828737388"
"791","Metheg-ammah","Gath",,"31.6935295036883","34.8438828857684"
"792","Michmas","Michmash",,"31.8701843423169","35.2792358193697"
"793","Michmash",,,"31.8701843423169","35.2792358193697"
"794","Michmethath",,,"32.183333","35.283333"
"795","Middin",,,"31.743894","35.401591"
"796","Midian",,"region","28.932881","34.90832"
"797","Migdal-el",,,"33.232131","35.362942"
"798","Migdal-gad",,,"31.666667","34.583333"
"799","Migdol",,,"30.020296","32.372233"
"800","Migron","Gibeah 1",,"31.8237810246031","35.2310093612863"
"801","Miletus",,,"37.5","27.3"
"802","Millo","Jerusalem",,"31.777444","35.234935"
"803","Minni","Ashkenaz",,"40.6","44.6"
"804","Minnith",,,"31.75","35.85"
"805","Mishal","Abdon",,"33.046264","35.172513"
"806","Misrephoth-maim",,"now Narouq","33.118952","35.139434"
"807","Mithkah","Mount Hor 1",,"30.317396","35.407152"
"808","Mitylene",,,"39.100335572863","26.55180477541"
"809","Mizpah","Ramoth-gilead",,"32.5652675736685","36.0055593087964"
"810","Mizpah","Valley of Mizpeh",,"33.28177","35.573371"
"811","Mizpah",,,"31.8327394702322","35.1801628605877"
"812","Mizpeh","Mizpah 3",,"31.8327394702322","35.1801628605877"
"813","Mizpeh","Lachish",,"31.5648505611629","34.8467256730566"
"814","Mizpeh","Kir",,"31.1813257959451","35.7021477904471"
"815","Moab","Dibon 1",,"31.4968451371061","35.78284105297"
"816","Moladah",,,"31.162327","35.057114"
"817","Moreh","Shechem",,"32.2136912312406","35.2817986718367"
"818","Moreh",,,"32.6177306350518","35.3573764529134"
"819","Moresheth","Mareshah",,"31.6039332129508","34.9023777777778"
"820","Moresheth-gath","Mareshah",,"31.6039332129508","34.9023777777778"
"821","Moriah","Mount Moriah",,"31.7775938500938","35.2352514095508"
"822","Mortar","Jerusalem",,"31.777444","35.234935"
"823","Moserah","Mount Hor 1",,"30.317396","35.407152"
"824","Moseroth","Mount Hor 1",,"30.317396","35.407152"
"825","Holy",,"mobile","0","0"
"826","Place",,"mobile","0","0"
"827","Place","Jerusalem",,"31.777444","35.234935"
"828","Mount","Mount of Olives",,"31.7780950334137","35.2471976093501"
"829","Baal-hermon","Mount Hermon",,"33.4161598239971","35.8572561763559"
"830","Baalah","Jabneel 1",,"31.865518","34.746856"
"831","Carmel",,,"32.729350157734","35.0497895723539"
"832","Ebal",,,"32.2329381376126","35.2730418003639"
"833","Ephraim","Mount Ebal",,"32.2329381376126","35.2730418003639"
"834","Ephron",,,"31.675746","35.042407"
"835","Esau","Bozrah 1",,"30.734691","35.60625"
"836","Gerizim",,,"32.1995617436538","35.2728522846023"
"837","Gilboa",,,"32.509840807167","35.4084347039669"
"838","Gilead","Mount Gilboa",,"32.509840807167","35.4084347039669"
"839","Halak",,"; http://www.bibleorigins.net/MountHalakGebelHalaqMap.html","30.916667","34.833333"
"840","Heres","Beth-shemesh 1",,"31.7527483581149","34.9766091314774"
"841","Hermon",,,"33.4161598239971","35.8572561763559"
"842","Hor",,,"30.317396","35.407152"
"843","Hor",,,"35.710069","36.18808"
"844","Horeb","Mount Sinai",,"28.539722","33.973333"
"845","Jearim","Chesalon",,"31.781049","35.05113"
"846","Lebanon","Lebanon",,"33.752479","35.590804"
"847","Mizar","Mount Hermon",,"33.4161598239971","35.8572561763559"
"848","Moriah",,,"31.7775938500938","35.2352514095508"
"849","Nebo",,,"31.7613578044753","35.7461482447808"
"850","Paran","Paran",,"29.151667","33.541944"
"851","Perazim","Valley of Rephaim",,"31.756332","35.223059"
"852","Seir","Bozrah 1","mountain range","30.734691","35.60625"
"853","Seir",,,"31.783333","34.994"
"854","Shepher","Mount Hor 1",,"30.317396","35.407152"
"855","Sinai",,,"28.539722","33.973333"
"856","Sirion","Mount Hermon",,"33.4161598239971","35.8572561763559"
"857","Tabor",,,"32.6869564024318","35.3909130429969"
"858","Zalmon","Mount Ebal",,"32.2329381376126","35.2730418003639"
"859","Zemaraim","Zemaraim",,"31.910999","35.45728"
"860","Zion","Jerusalem",,"31.777444","35.234935"
"861","Olives",,,"31.7780950334137","35.2471976093501"
"862","Mozah",,,"31.802641","35.158376"
"863","Gate","Jerusalem",,"31.777444","35.234935"
"864","Myra",,,"36.2307717908834","30.0114588207415"
"865","Mysia","Troas",,"39.5066430592327","26.0805927047062"
"866","Naamah",,,"31.871782","34.871894"
"867","Naarah","Naaran",,"31.949518","35.45873"
"868","Naaran",,,"31.949518","35.45873"
"869","Nahalal","Nahalol",,"32.722209","35.35282"
"870","Nahaliel","Lasha",,"31.718148","35.584826"
"871","Nahalol",,,"32.722209","35.35282"
"872","Nain",,,"32.6308333668039","35.3478268910216"
"873","Naioth","Mizpah 3",,"31.8327394702322","35.1801628605877"
"874","Naphath","Megiddo",,"32.5841831361494","35.1822916587059"
"875","Naphath-dor","Dor",,"32.6132361839452","34.9188968343406"
"876","Naphish","Golan",,"32.8000755250544","35.9373013047626"
"877","Naphoth-dor","Dor",,"32.6132361839452","34.9188968343406"
"878","Nazareth",,,"32.7067454247438","35.3015280776797"
"879","Neah","Neiel",,"32.894254","35.221877"
"880","Neapolis",,,"40.944131993213","24.4176799541233"
"881","Nebaioth","Sela","(Nabateans  Petra)","30.3224357122321","35.4562794691997"
"882","Neballat",,"now Bayt Nabala","31.992079","34.957563"
"883","Nebo",,"from harper; now El Mekhaiyat","31.748024","35.743257"
"884","Nebo",,,"31.606256","35.037417"
"885","Negeb",,,"30.3","34.2"
"886","Nehelam",,,"0","0"
"887","Neiel",,"; now Yenin","32.894254","35.221877"
"888","Nephtoah",,,"31.683036","35.167987"
"889","Netaim","Gederah",,"31.823337","34.777779"
"890","Netophah",,,"31.735465","35.220503"
"891","Gate","Jerusalem",,"31.777444","35.234935"
"892","Nezib",,,"31.58805","34.992389"
"893","Nibshan","Engedi",,"31.4615253616477","35.3924110824235"
"894","Nicopolis",,,"39.024033","20.73573"
"895","Nile",,,"30.092632","31.230987"
"896","Nimrah","Beth-nimrah",,"31.900811","35.625693"
"897","Nimrim",,"from harper; now Numeira","31.133191","35.531138"
"898","Nimrod","Babel","figurative","32.5365036861685","44.4208828737388"
"899","Nineveh",,"Nineveh in KML","36.35941","43.152887"
"900","Nob",,,"31.799605","35.23298"
"901","Nobah","Kenath",,"32.756919","36.6164"
"902","Nod",,,"0","0"
"903","Nodab","Golan",,"32.8000755250544","35.9373013047626"
"904","Nohah","Manahath",,"31.752603","35.181972"
"905","Nophah","Kenath",,"32.756919","36.6164"
"906","Oboth","Dibon 1",,"31.4968451371061","35.78284105297"
"907","Olivet","Mount of Olives",,"31.7780950334137","35.2471976093501"
"908","On",,,"30.108086","31.33822"
"909","Ono",,,"32.0222222222222","34.8666666666667"
"910","Ophel","Jerusalem",,"31.777444","35.234935"
"911","Ophir","India",,"22","77"
"912","Ophni",,,"31.961989","35.215483"
"913","Ophrah",,,"31.953789558582","35.29913577541"
"914","Ophrah",,,"32.6086826954059","35.2882643308455"
"915","Paddan","Haran",,"36.8638640765965","39.0321967222734"
"916","Paddan-aram","Haran",,"36.8638640765965","39.0321967222734"
"917","Pai","Bozrah 1",,"30.734691","35.60625"
"918","Pamphylia","Perga",,"37.005208117216","30.9049459160611"
"919","Paphos",,,"34.7541057617552","32.4001621331338"
"920","Parah",,,"31.833333","35.3"
"921","Paran",,,"29.151667","33.541944"
"922","Parvaim",,,"0","0"
"923","Pas-dammim","Ephes-dammim",,"31.691186","34.944496"
"924","Patara",,,"36.2747178692721","29.3186378339052"
"925","Pathros",,"region","28.322364","30.692312"
"926","Patmos",,,"37.30752","26.548274"
"927","Pau","Bozrah 1",,"30.734691","35.60625"
"928","Pekod","Babel",,"32.5365036861685","44.4208828737388"
"929","Pelusium","Sin",,"28.838778","33.420573"
"930","Peniel",,,"32.1843727808126","35.7028700274679"
"931","Penuel","Peniel",,"32.1843727808126","35.7028700274679"
"932","Gate","Jerusalem",,"31.777444","35.234935"
"933","Peor","Pisgah",,"31.7650312970331","35.7185657574181"
"934","Perez-uzza","Jerusalem",,"31.777444","35.234935"
"935","Perez-uzzah","Jerusalem",,"31.777444","35.234935"
"936","Perga",,,"37.005208117216","30.9049459160611"
"937","Pergamum",,,"39.1189459203175","27.1651261047574"
"938","Persia","Ecbatana",,"34.798311","48.514966"
"939","Pethor",,"http://www.aushariye.hum.ku.dk/images/large/fig-01.htm","36.654616","38.068879"
"940","Pharpar",,"river","33.379601","36.306085"
"941","Philadelphia",,,"38.3490480313563","28.519462090476"
"942","Philippi",,,"41.0119594798466","24.2861909778052"
"943","Philistia","Sidon",,"33.5631673413575","35.366346493548"
"944","Phoenicia","Sidon",,"33.5631673413575","35.366346493548"
"945","Phoenix",,,"35.1988857652248","24.0809820227081"
"946","Phrygia","Laodicea",,"37.7698672376142","29.0645011023707"
"947","Pi-beseth",,,"30.583333","31.5"
"948","Pi-hahiroth",,,"29.94658","32.425144"
"949","Pirathon",,"now Faroun","32.286022","35.022944"
"950","Pisgah",,,"31.7650312970331","35.7185657574181"
"951","Pishon",,,"0","0"
"952","Pisidia","Antioch 2",,"38.3164305639304","31.1794868304897"
"953","Pithom",,,"30.5938513281763","32.1855580314001"
"954","Place","Jerusalem",,"31.777444","35.234935"
"955","Plain","Jericho",,"31.8706014381829","35.4438637122443"
"956","Pontus",,"region","40.905222","37.799969"
"957","Pool","Jerusalem",,"31.777444","35.234935"
"958","Gate","Jerusalem",,"31.777444","35.234935"
"959","Ptolemais","Acco",,"32.927583","35.081555"
"960","Pul","Cyrene",,"32.824979","21.858301"
"961","Punon","Dibon 1",,"31.4968451371061","35.78284105297"
"962","Put","Cyrene",,"32.824979","21.858301"
"963","Puteoli",,,"40.8356306529709","14.2677438666742"
"964","Raamah",,,"15.68","42.78"
"965","Raamses","Pithom",,"30.5938513281763","32.1855580314001"
"966","Rabbah","Ammon",,"31.9501885546847","35.9241313587275"
"967","Rabbith",,,"32.391416","35.377302"
"968","Racal","Carmel",,"31.433331516746","35.133331885308"
"969","Rahab","On",,"30.108086","31.33822"
"970","Rakkath","Tiberias",,"32.7955379944447","35.5292203981952"
"971","Rakkon",,,"32.132898","34.788144"
"972","Ramah",,,"31.8963786353243","35.2017306897771"
"973","Ramah",,,"33.111078","35.310464"
"974","Ramah",,,"32.93901","35.368123"
"975","Ramah","Mizpah 3",,"31.8327394702322","35.1801628605877"
"976","Ramah","Ramoth-gilead",,"32.5652675736685","36.0055593087964"
"977","Ramathaim-zophim","Mizpah 3",,"31.8327394702322","35.1801628605877"
"978","Ramath-lehi","Beth-shemesh 1",,"31.7527483581149","34.9766091314774"
"979","Ramath-mizpeh","Ramoth-gilead",,"32.5652675736685","36.0055593087964"
"980","Rameses",,,"30.799370210096","31.834216685474"
"981","Ramoth","Jezreel 2",,"32.5559631396043","35.3307892784379"
"982","Ramoth","Baalath-beer",,"32.049953","35.733402"
"983","Ramoth","Ramoth-gilead",,"32.5652675736685","36.0055593087964"
"984","Ramoth-gilead",,,"32.5652675736685","36.0055593087964"
"985","Recah","Bethlehem 1",,"31.7053612917467","35.210266301052"
"986","Red Sea",,"water","27.088473","34.771729"
"987","Rehob","Beth-rehob",,"33.219354","35.544122"
"988","Rehob","Hammath",,"33.125828","35.165"
"989","Rehob","Helkath",,"32.955448","35.211971"
"990","Rehoboth",,,"31.066829","34.59783"
"991","Rehoboth","Zered",,"30.884128","35.897633"
"992","Rehoboth-Ir","Nineveh",,"36.35941","43.152887"
"993","Rekem","Irpeel",,"31.869343","35.197712"
"994","Remeth","Jezreel 2",,"32.5559631396043","35.3307892784379"
"995","Rephaim","Golan",,"32.8000755250544","35.9373013047626"
"996","Rephidim",,,"28.7310610256432","33.841699957265"
"997","Resen","Nineveh",,"36.35941","43.152887"
"998","Rezeph",,"; from http://en.wikipedia.org/wiki/Resafa","35.95","39.016667"
"999","Rhegium",,,"38.111580031473","15.6432790249716"
"1000","Rhodes",,,"36.441926329102","28.2267217333672"
"1001","Riblah",,,"34.431703","36.545259"
"1002","Riblah","Ain 1",,"34.353071","36.385705"
"1003","Rimmon",,,"31.93466","35.297063"
"1004","Rimmon","Ain 1",,"34.353071","36.385705"
"1005","Rimmon","Dimnah",,"32.781808","35.321364"
"1006","Rimmono","Dimnah",,"32.781808","35.321364"
"1007","Rimmon-perez","Ashnah",,"31.8099","34.9365"
"1008","Rissah","Mount Hor 1",,"30.317396","35.407152"
"1009","Rithmah","Ashnah",,"31.8099","34.9365"
"1010","River","Euphrates",,"35.090577","40.42778"
"1011","Rock","Maon",,"31.4166666666667","35.1166666666667"
"1012","Rogelim","Mahanaim",,"32.214708","35.632914"
"1013","Rome",,,"41.9","12.4833333333333"
"1014","Rumah","Arumah",,"32.154887","35.318192"
"1015","Sahar","Helbon",,"33.664912","36.248576"
"1016","Salamis",,,"35.177246069444","33.9075521286595"
"1017","Salecah",,,"32.493941","36.710337"
"1018","Salem","Jerusalem",,"31.777444","35.234935"
"1019","Salim",,,"32.3993341403464","35.526443096987"
"1020","Salmone",,,"35.212297298806","26.2744917437428"
"1021","Salt Sea",,,"31.538593","35.482268"
"1022","Samaria",,,"32.280231","35.197929"
"1023","Samaria's","Samaria",,"32.280231","35.197929"
"1024","Samos",,,"37.715172","26.934167"
"1025","Samothrace",,,"40.467279","25.486069"
"1026","Sansannah","Madmannah",,"31.391668","34.940502"
"1027","Sardis",,,"38.476826903458","28.1141311873209"
"1028","Sarid",,,"32.6897857373386","35.1966687000605"
"1029","Chinnereth","Sea of Galilee",,"32.8067758552032","35.5893605267909"
"1030","Chinneroth","Sea of Galilee",,"32.8067758552032","35.5893605267909"
"1031","Egypt","Red Sea","water","27.088473","34.771729"
"1032","Galilee",,"water","32.8067758552032","35.5893605267909"
"1033","Jazer","Jazer","water","31.943529516898","35.7277696115713"
"1034","Tiberias","Sea of Galilee","water","32.8067758552032","35.5893605267909"
"1035","Arabah","Salt Sea","water","31.538593","35.482268"
"1036","Philistines","Great Sea","water","33.24","33.47"
"1037","Seba","Sheba",,"9.022736","38.746799"
"1038","Sebam","Sibmah",,"31.815283","35.766738"
"1039","Secacah",,,"31.766667","35.283333"
"1040","Second Quarter","Jerusalem",,"31.777444","35.234935"
"1041","Secu",,"; now Suweika","31.883333","35.2"
"1042","Seir","Bozrah 1",,"30.734691","35.60625"
"1043","Seirah","Bethel 1","SE Ephraim","31.9305392058","35.2210327492368"
"1044","Sela",,,"30.3224357122321","35.4562794691997"
"1045","Seleucia",,,"36.111017503331","35.92680788324"
"1046","Seneh",,,"31.8530942840544","35.2861691670353"
"1047","Senir","Mount Hermon",,"33.4161598239971","35.8572561763559"
"1048","Sephar",,,"14.550219","44.392642"
"1049","Sepharad","Sardis",,"38.476826903458","28.1141311873209"
"1050","Sepharvaim",,,"33.789693","44.459399"
"1051","Serpent's Stone","En-rogel",,"31.767775","35.234408"
"1052","Shaalabbin","Shaalbim",,"31.870364","34.981728"
"1053","Shaalbim",,"now Salbit","31.870364","34.981728"
"1054","Shaalim","Gibeon",,"31.846847727537","35.1849123777751"
"1055","Shaaraim",,,"31.7001","34.89532"
"1056","Shaaraim","Sharuhen",,"31.282222","34.4825"
"1057","Shahazumah","Beth-shemesh 2",,"32.40643","35.504628"
"1058","Shalishah","Gibeon",,"31.846847727537","35.1849123777751"
"1059","Shallecheth","Jerusalem",,"31.777444","35.234935"
"1060","Shamir",,,"31.416667","34.933333"
"1061","Shamir",,"now Sanur","32.36047","35.250054"
"1062","Shaphir",,,"31.743719","34.694006"
"1063","Sharon",,"region","32.639068","34.945929"
"1064","Sharon","Mount Hermon",,"33.4161598239971","35.8572561763559"
"1065","Sharuhen",,"now Tel Sharuhen","31.282222","34.4825"
"1066","Shaveh-kiriathaim","Kiriathaim 1",,"31.5833333333","35.7000000000001"
"1067","Sheba",,"region","9.022736","38.746799"
"1068","Shebarim","Ai 1",,"31.9169781171252","35.2612263938089"
"1069","Shechem",,,"32.2136912312406","35.2817986718367"
"1070","Gate","Jerusalem",,"31.777444","35.234935"
"1071","Shema","Moladah",,"31.162327","35.057114"
"1072","Shen","Mizpah 3",,"31.8327394702322","35.1801628605877"
"1073","Shepham","Ain 1",,"34.353071","36.385705"
"1074","Shephelah","Ekron","region","31.7776141053746","34.8521457588051"
"1075","Shibah","Beersheba",,"31.2449521735771","34.8408885849849"
"1076","Shihor","Brook of Egypt","; river","31.032047","33.854957"
"1077","Shihor-libnath",,"river; now Nahar Tanninim","32.538496","34.907697"
"1078","Shikkeron","Ekron",,"31.7776141053746","34.8521457588051"
"1079","Shilhim","Sharuhen",,"31.282222","34.4825"
"1080","Shiloah","Jerusalem",,"31.777444","35.234935"
"1081","Shiloh",,,"32.0557005071298","35.2895286971268"
"1082","Shimron",,,"32.7052889558561","35.2133328575774"
"1083","Shimron-meron","Shimron",,"32.7052889558561","35.2133328575774"
"1084","Shinar","Babel","region","32.5365036861685","44.4208828737388"
"1085","Shion",,,"32.716666","35.333334"
"1086","Shittim","Abel-shittim",,"31.8582621790582","35.641566527928"
"1087","Shoa","Ecbatana",,"34.798311","48.514966"
"1088","Shual","Ophrah 1",,"31.953789558582","35.29913577541"
"1089","Shunem",,,"32.6056310223463","35.3343058571649"
"1090","Shur",,,"30.2354","33.247"
"1091","Sibmah",,,"31.815283","35.766738"
"1092","Sibraim","Hamath",,"35.136204","36.749488"
"1093","Sidon",,,"33.5631673413575","35.366346493548"
"1094","Sidon","Sidon",,"33.5631673413575","35.366346493548"
"1095","Silla","Jerusalem",,"31.777444","35.234935"
"1096","Siloam","Jerusalem",,"31.777444","35.234935"
"1097","Sin",,"region","28.838778","33.420573"
"1098","Sinai","Mount Sinai",,"28.539722","33.973333"
"1099","Siphmoth","Anim",,"31.373521","35.074552"
"1100","Sirah",,,"31.55","35.1"
"1101","Sirion","Mount Hermon",,"33.4161598239971","35.8572561763559"
"1102","Sitnah","Gerar",,"31.391291096357","34.5605701563914"
"1103","Smyrna",,,"38.4519603788605","27.1619210484478"
"1104","Soco","Socoh 1",,"31.68123465358","34.9763981751671"
"1105","Socoh",,,"31.68123465358","34.9763981751671"
"1106","Socoh","Debir 1",,"31.416669599771","34.9666701228008"
"1107","Sodom",,,"31.1965603313232","35.3964841181349"
"1108","Solomon's","Jerusalem",,"31.777444","35.234935"
"1109","Solomon's Portico","Jerusalem","KMZ:Solomons porch","31.777444","35.234935"
"1110","South",,,"0","0"
"1111","Spain",,"region","40.481391","-3.175332"
"1112","Straight","Damascus",,"33.519299","36.31345"
"1113","Succoth",,,"32.1999829853107","35.6333130338963"
"1114","Succoth",,,"30.6207741439806","32.2586932235154"
"1115","Suph","Red Sea",,"27.088473","34.771729"
"1116","Suphah","Red Sea",,"27.088473","34.771729"
"1117","Sur","Jerusalem",,"31.777444","35.234935"
"1118","Susa",,,"32.1891912370512","48.2578864768772"
"1119","Sychar",,,"32.2030765668644","35.3119210640254"
"1120","Syene",,"now Aswan","24.066181","32.895862"
"1121","Syracuse",,,"37.0682324787393","15.2948238829937"
"1122","Syria","Damascus","region","33.519299","36.31345"
"1123","Syrtis",,"water; from harper; now Sidra","31.766667","18.505556"
"1124","Taanach",,,"32.5172397550172","35.2163250882631"
"1125","Taanath-shiloh",,"; now Khirbat Tana","32.15","35.383333"
"1126","Tabbath","Abel-meholah",,"32.35601","35.536929"
"1127","Taberah","Hazeroth",,"28.916667","34.5"
"1128","Tabor","Mount Tabor",,"32.6869564024318","35.3909130429969"
"1129","Tabor","Chesulloth",,"32.683231","35.324694"
"1130","Tabor","Bethel 1",,"31.9305392058","35.2210327492368"
"1131","Tadmor",,,"34.5540491686839","38.2659049716414"
"1132","Tahath","Mount Hor 1",,"30.317396","35.407152"
"1133","Tahpanhes",,"http://en.wikipedia.org/wiki/Tahpanhes","30.860556","32.171389"
"1134","Tamar","Tadmor",,"34.5540491686839","38.2659049716414"
"1135","Tamar",,"now Kurnub; from New Bible Dictionary","31.024923","35.064154"
"1136","Tappuah",,,"32.1166666666667","35.2333333333333"
"1137","Tappuah","Enam",,"32.15","35.126"
"1138","Taralah","Haeleph",,"31.792733","35.196862"
"1139","Tarshish",,,"36.9529951288027","-6.37934023413256"
"1140","Tarsus",,,"36.9180269535628","34.8915339842257"
"1141","Tehaphnehes","Tahpanhes",,"30.860556","32.171389"
"1142","Tekoa",,,"31.6362212719199","35.2140772182452"
"1143","Tel-abib","Calneh","; from Arch. Enc. of Holy Land","32.127213","45.229995"
"1144","Telaim","Moladah",,"31.162327","35.057114"
"1145","Telassar","Susa","from http://en.wikipedia.org/wiki/Elam","32.1891912370512","48.2578864768772"
"1146","Telem","Moladah",,"31.162327","35.057114"
"1147","Tel-harsha","Calneh","near the sea","32.127213","45.229995"
"1148","Tel-melah","Calneh","from tyndale","32.127213","45.229995"
"1149","Tema",,,"27.633172","38.554125"
"1150","Teman",,"region","30.203813","35.732568"
"1151","Terah","Mount Hor 1",,"30.317396","35.407152"
"1152","There","Jerusalem",,"31.777444","35.234935"
"1153","Place","Jerusalem",,"31.777444","35.234935"
"1154","Skull","Jerusalem",,"31.777444","35.234935"
"1155","Pavement","Jerusalem",,"31.777444","35.234935"
"1156","Thebes",,,"25.700025","32.639441"
"1157","Thebez",,,"32.3241024517848","35.3682527563446"
"1158","Thessalonica",,,"40.632155565205","22.9320868699276"
"1159","Three Taverns",,,"41.59132","12.828636"
"1160","Thyatira",,,"38.9257912878683","27.8565557459279"
"1161","Tiberias",,,"32.7955379944447","35.5292203981952"
"1162","Tibhath","Berothah",,"33.93148","36.152049"
"1163","Tigris",,,"35.983343","43.346466"
"1164","Timnah",,"now Tel Batash","31.784368","34.90968"
"1165","Timnah",,,"31.699323","35.040359"
"1166","Timnath-heres",,,"32.121473","35.150392"
"1167","Timnath-serah","Timnath-heres",,"32.121473","35.150392"
"1168","Tiphsah",,,"35.847967","38.73235"
"1169","Tiphsah",,,"32.166667","35.166667"
"1170","Tirzah",,,"32.2713686993778","35.2943038684542"
"1171","Tishbe","Hazor 1","from http://www.britam.org/naphtali.html","33.0171819966793","35.5680485675826"
"1172","Tob",,"from harper; now et-Taiyibeh","32.561735","36.240494"
"1173","Tochen","Ashnah",,"31.8099","34.9365"
"1174","Tolad","Baalath-beer",,"32.049953","35.733402"
"1175","Tophel",,,"30.936991","35.61687"
"1176","Topheth","Valley of Hinnom",,"31.769079","35.227994"
"1177","Tower","Jerusalem",,"31.777444","35.234935"
"1178","Shechem","Shechem",,"32.2136912312406","35.2817986718367"
"1179","Tower","Jerusalem",,"31.777444","35.234935"
"1180","Tower","Jerusalem",,"31.777444","35.234935"
"1181","Trachonitis",,"region","32.833333","36.5"
"1182","Troas",,,"39.5066430592327","26.0805927047062"
"1183","Tubal","Pontus","region","40.905222","37.799969"
"1184","Tyre",,,"33.2758278226688","35.1925745354558"
"1185","Ulai",,"river; from http://en.wikipedia.org/wiki/Ulai","32.178696","48.22489"
"1186","Ummah",,"now Alma el Shaab","33.104377","35.180623"
"1187","Uphaz","India",,"22","77"
"1188","Upper Beth-horon",,,"31.8589179541","35.1283131748422"
"1189","Ur",,,"30.9620520474569","46.1037419577417"
"1190","Uz",,,"30.0334","36.44839"
"1191","Uzal",,"now Sanaa","15.354879","44.215092"
"1192","Uzza","Jerusalem",,"31.777444","35.234935"
"1193","Uzzen-sheerah",,"now Beit Sera","31.887821","35.045649"
"1194","ValeSuccoth","Succoth 1",,"32.1999829853107","35.6333130338963"
"1195","Gate","Jerusalem",,"31.777444","35.234935"
"1196","Achor",,,"31.83689","35.399737"
"1197","Aijalon","Aijalon",,"31.8411737661954","35.0253792674307"
"1198","Aven",,,"34.006944","36.203889"
"1199","Baca","Valley of Hinnom",,"31.769079","35.227994"
"1200","Beracah",,,"31.61065","35.165648"
"1201","Elah",,,"31.690629","34.963136"
"1202","Eshcol","Mamre",,"31.5490987168687","35.0935606202003"
"1203","Gerar","Gerar",,"31.391291096357","34.5605701563914"
"1204","Gibeon","Gibeon",,"31.846847727537","35.1849123777751"
"1205","Hamon-gog","Dibon 1",,"31.4968451371061","35.78284105297"
"1206","Hebron","Mamre",,"31.5490987168687","35.0935606202003"
"1207","Hinnom",,,"31.769079","35.227994"
"1208","Iphtahel",,,"32.832774","35.277225"
"1209","Jehoshaphat","Kidron",,"31.772134","35.236596"
"1210","Jericho","Jericho",,"31.8706014381829","35.4438637122443"
"1211","Jezreel","Jezreel 2",,"32.5559631396043","35.3307892784379"
"1212","Lebanon","Mount Hermon",,"33.4161598239971","35.8572561763559"
"1213","Mizpeh",,,"33.28177","35.573371"
"1214","Rephaim",,,"31.756332","35.223059"
"1215","Salt",,"from nbd","31.087328","35.38374"
"1216","Shaveh","Jerusalem",,"31.777444","35.234935"
"1217","Shittim","Abel-shittim",,"31.8582621790582","35.641566527928"
"1218","Siddim",,,"31.235341","35.517624"
"1219","Slaughter","Valley of Hinnom",,"31.769079","35.227994"
"1220","Sorek",,"now Wadi es-Sarar","31.825731","34.989013"
"1221","Succoth","Succoth 1",,"32.1999829853107","35.6333130338963"
"1222","Zeboim",,"from tyndale; now Wadi ed Dubba","31.936283","35.424836"
"1223","Zephathah",,,"31.615198","34.910085"
"1224","Zered","Zered",,"30.884128","35.897633"
"1225","Arnon","Arnon",,"31.4288","35.677009"
"1226","SonHinnom","Valley of Hinnom",,"31.769079","35.227994"
"1227","Travelers","Dibon 1",,"31.4968451371061","35.78284105297"
"1228","Waheb","Red Sea",,"27.088473","34.771729"
"1229","Field","Valley of Hinnom",,"31.769079","35.227994"
"1230","Gate","Jerusalem",,"31.777444","35.234935"
"1231","Way","Jerusalem","road","31.777444","35.234935"
"1232","Rocks","Engedi",,"31.4615253616477","35.3924110824235"
"1233","Yiron",,"now Yaroun","33.088748","35.414111"
"1234","Zaanan","Shaphir",,"31.743719","34.694006"
"1235","Zaanannim","Kedesh 1",,"33.112983574861","35.5336133415023"
"1236","Zair","Zoar",,"30.9265225301655","35.4190606947832"
"1237","Zalmon","Mount Ebal",,"32.2329381376126","35.2730418003639"
"1238","Zalmonah","Dibon 1",,"31.4968451371061","35.78284105297"
"1239","Zanoah",,,"31.716667","35"
"1240","Zanoah",,,"31.366667","35"
"1241","Zaphon",,"; now Qos","32.23771","35.585865"
"1242","Zarephath",,,"33.4333","35.3"
"1243","Zarethan",,"now Tell es Saidiyeh; from harper","32.267821","35.576613"
"1244","Zeboiim","Admah",,"31.1194227016214","35.4125304919517"
"1245","Zeboim",,,"31.1018224029149","35.4763365651137"
"1246","Zedad",,,"34.312571","36.925484"
"1247","Zela","Haeleph",,"31.792733","35.196862"
"1248","Zelzah",,,"31.717666","35.187019"
"1249","Zemaraim",,,"31.910999","35.45728"
"1250","Zenan","Shaphir",,"31.743719","34.694006"
"1251","Zephath",,,"30.880918","34.63062"
"1252","Zer","Hammath",,"33.125828","35.165"
"1253","Zered",,"river","30.884128","35.897633"
"1254","Zeredah","Mount Ebal",,"32.2329381376126","35.2730418003639"
"1255","Zeredah","Zarethan",,"32.267821","35.576613"
"1256","Zererah","Zarethan","; from tyndale","32.267821","35.576613"
"1257","Zereth-shahar",,,"31.616962","35.567522"
"1258","Ziddim",,,"32.814279","35.435872"
"1259","Ziklag",,,"31.3776","34.873562"
"1260","Zimri","Susa",,"32.1891912370512","48.2578864768772"
"1261","Zin","Kadesh-barnea","region","30.6877128137611","34.4947955424695"
"1262","Zin","Kadesh-barnea",,"30.6877128137611","34.4947955424695"
"1263","Zion","Jerusalem",,"31.777444","35.234935"
"1264","Zion's","Jerusalem",,"31.777444","35.234935"
"1265","Zior",,,"31.589719","35.148296"
"1266","Ziph",,,"31.4833","35.1333"
"1267","Ziph","Moladah",,"31.162327","35.057114"
"1268","Ziphron","Hazar-enan",,"34.229499","37.240077"
"1269","Ziz",,,"31.572903","35.406346"
"1270","Zoan",,,"30.9746198240792","31.8841730676853"
"1271","Zoar",,,"30.9265225301655","35.4190606947832"
"1272","Zobah","Zedad","region","34.312571","36.925484"
"1273","Zobah-Hamath","Zedad",,"34.312571","36.925484"
"1274","Zophim",,,"31.767811","35.725296"
"1275","Zorah",,,"31.762141","34.969319"
"1276","Zuph","Gibeon",,"31.846847727537","35.1849123777751"
